AKEBONO (EXOS-D)        
1 19822U 89016A   18063.21112700  .00012544  16243-6  23480-3 0  9996
2 19822  75.0360 349.5930 1863095 154.7167 215.8283 11.79361279939771
HST                     
1 20580U 90037B   18063.22037535  .00000429  00000-0  15286-4 0  9990
2 20580  28.4698  88.9713 0002982  91.5333 339.3535 15.08988950329597
POLAR                   
1 23802U 96013A   18061.75772266  .00000056  00000-0  00000+0 0  9992
2 23802  78.5619 264.0861 7177177 312.4789   6.0681  1.29843589105513
SWAS                    
1 25560U 98071A   18062.91993405  .00000155  00000-0  23251-4 0  9998
2 25560  69.9002 327.8726 0007694 181.6722 178.4409 14.93546994 44100
ORSTED                  
1 25635U 99008B   18062.60403334  .00000060  00000-0  21402-4 0  9996
2 25635  96.4515 272.5750 0139955 139.7297 221.4370 14.48054827  3501
CXO                     
1 25867U 99040B   18066.15363162  .00000436  00000-0  00000+0 0  9990
2 25867  72.1796 284.8634 6831198 245.0090 359.9467  0.37805628 17047
XMM-NEWTON              
1 25989U 99066A   18063.92624438 -.00000116  00000-0  00000+0 0  9997
2 25989  69.9538 351.3289 8064461  96.0041   0.4139  0.50139866 22194
TERRA                   
1 25994U 99068A   18063.25642571 -.00000035  00000-0  23980-5 0  9997
2 25994  98.2145 139.6064 0000877  66.8754 293.2549 14.57106675968545
CLUSTER II-FM6 (SALSA)  
1 26410U 00041A   18064.74886950 -.00000115  00000-0  00000-0 0  9992
2 26410 130.9116 335.2270 4208224 158.9358 359.7361  0.44241725 18652
CLUSTER II-FM7 (SAMBA)  
1 26411U 00041B   18064.74614424 -.00000254  00000-0  00000-0 0  9992
2 26411 130.0261 336.4802 4974787 167.0084 359.8109  0.44233147 18739
CLUSTER II-FM5 (RUMBA)  
1 26463U 00045A   18064.74680484 -.00000190  00000-0  00000+0 0  9990
2 26463 133.5837 335.1405 4673417 165.4032 359.8249  0.44230275 19239
CLUSTER II-FM8 (TANGO)  
1 26464U 00045B   18061.62928419 -.00000083  00000-0  00000+0 0  9999
2 26464 130.9046 335.2034 4212554 158.8744 225.6199  0.44219391 54553
ODIN                    
1 26702U 01007A   18063.52780579  .00000737  00000-0  52741-4 0  9996
2 26702  97.5987  82.5740 0009484 239.9258 120.1030 15.07457661930868
TIMED                   
1 26998U 01055B   18063.41458638  .00000120  00000-0  17097-4 0  9993
2 26998  74.0728 157.2797 0000533 244.1290 115.9836 14.87995708880181
RHESSI                  
1 27370U 02004A   18062.94843240  .00001440  00000-0  53451-4 0  9997
2 27370  38.0322 263.7366 0012670 343.5613  16.4745 15.29811218886044
INTEGRAL                
1 27540U 02048A   18061.84318240  .00000775  00000-0  00000+0 0  9996
2 27540  48.9838 174.8152 8440363 266.0327   0.4295  0.37592624 15275
CORIOLIS                
1 27640U 03001A   18062.93619182 -.00000001  00000-0  20372-4 0  9999
2 27640  98.7409  74.5811 0013027 282.1582 136.1624 14.18971148784809
SORCE                   
1 27651U 03004A   18062.91743834  .00000085  00000-0  23038-4 0  9997
2 27651  39.9963 314.1118 0024580 259.6476 100.1542 14.88819728819477
MOST                    
1 27843U 03031D   18063.01944748 -.00000031  00000-0  61176-5 0  9997
2 27843  98.7144  72.4241 0009708 351.4944   8.6067 14.20564169760843
SCISAT 1                
1 27858U 03036A   18063.44016374 -.00000001  00000-0  48126-5 0  9997
2 27858  73.9336  34.7363 0006504  73.2209 286.9678 14.77186134784206
SWIFT                   
1 28485U 04047A   18063.22130936  .00000893  00000-0  31200-4 0  9996
2 28485  20.5570 116.4207 0011041 284.3938  75.5270 15.04036219727400
FORMOSAT-3 FM6          
1 29047U 06011A   18062.89821343 -.00000015  00000-0  10256-4 0  9990
2 29047  71.9807  17.2409 0048288  63.5885 297.0195 14.28623505621844
FORMOSAT-3 FM1          
1 29048U 06011B   18062.88843340  .00000028  00000-0  27626-4 0  9993
2 29048  71.9662 289.1317 0043098  18.6764 341.5941 14.28563146624338
FORMOSAT-3 FM5          
1 29049U 06011C   18062.58529638  .00000079  00000-0  47311-4 0  9991
2 29049  72.0190  96.6704 0033241  53.6041 306.8153 14.28626641620070
FORMOSAT-3 FM3          
1 29050U 06011D   18062.94992592  .00000155  00000-0  43025-4 0  9999
2 29050  72.0174 327.3124 0048533  43.3539 317.1414 14.58632399634342
FORMOSAT-3 FM4          
1 29051U 06011E   18063.23188542  .00000091  00000-0  51357-4 0  9991
2 29051  72.0079 358.9609 0070218 290.1088  69.2502 14.28654905622750
FORMOSAT-3 FM2          
1 29052U 06011F   18062.51887161  .00000044  00000-0  33576-4 0  9996
2 29052  72.0333  72.1323 0039589  14.3315 345.8934 14.28749025620979
CLOUDSAT                
1 29107U 06016A   18063.54078146  .00000052  00000-0  20989-4 0  9994
2 29107  98.2316   8.9728 0007239  89.2480 270.9549 14.59191145630348
CALIPSO                 
1 29108U 06016B   18063.13998282  .00000097  00000-0  31606-4 0  9999
2 29108  98.2118   8.1266 0001299  79.0638 281.0707 14.57101710630212
HINODE (SOLAR-B)        
1 29479U 06041A   18062.94366912  .00000049  00000-0  18190-4 0  9995
2 29479  98.1704  70.5633 0018266 118.9680 241.3357 14.64897343611419
SJ-6C                   
1 29505U 06046A   18063.55027701 -.00000337  00000-0 -25954-4 0  9996
2 29505  97.8265  69.6286 0002383 336.6861  23.4267 14.94412529618758
SJ-6D                   
1 29506U 06046B   18063.43349880  .00000526  00000-0  55613-4 0  9992
2 29506  97.8462  69.0405 0002978  49.3850 310.7636 14.93354103618395
AGILE                   
1 31135U 07013A   18062.42751111  .00002288  00000-0  38102-4 0  9991
2 31135   2.4673 249.1309 0012198  75.2527 284.8878 15.30548124236104
AIM                     
1 31304U 07015A   18062.58893260  .00000276  00000-0  19919-4 0  9990
2 31304  98.0002 258.9616 0004740 348.9128  11.1996 15.12575316594145
FGRST (GLAST)           
1 33053U 08029A   18063.21416882  .00000491  00000-0  11436-4 0  9996
2 33053  25.5836  33.9385 0012699  51.4003 308.7668 15.11051951536692
WISE                    
1 36119U 09071A   18062.65761046  .00000615  00000-0  24587-4 0  9991
2 36119  97.4260  95.2313 0004279 106.3905 253.7806 15.28878106455897
SDO                     
1 36395U 10005A   18059.23507052 -.00000101  00000-0  00000-0 0  9992
2 36395  29.0667 135.8589 0000970  96.0895 268.4353  1.00275571 29640
CRYOSAT 2               
1 36508U 10013A   18062.93617704  .00000017  00000-0  34984-5 0  9992
2 36508  92.0231 265.1029 0007987 160.6181 199.5332 14.52178735418873
X-SAT                   
1 37389U 11015C   18063.44343743 -.00000018  00000-0  10515-4 0  9994
2 37389  98.5414 136.5471 0013531 206.6901 153.3588 14.24349396357279
SPEKTR-R                
1 37755U 11037A   18039.85315834 -.00008981  00000-0  00000+0 0  9993
2 37755  51.8589 298.0985 9303355   0.5947   1.4200  0.12123306  2736
GCOM-W1 (SHIZUKU)       
1 38337U 12025A   18063.49758604  .00000052  00000-0  21564-4 0  9994
2 38337  98.2100   5.1562 0001445  65.1547  30.9297 14.57068758308267
NUSTAR                  
1 38358U 12031A   18063.06615755  .00000975  00000-0  28692-4 0  9999
2 38358   6.0255 222.8832 0011202  76.9844 283.1535 14.87934920311210
RBSP A                  
1 38752U 12046A   18062.45565850  .00000043  00000-0  10782-2 0  9990
2 38752  10.0725  70.3829 6813928  11.2869 358.4438  2.68120334 53838
RBSP B                  
1 38753U 12046B   18062.05076931  .00000036  00000-0  10808-2 0  9995
2 38753   9.9791  82.4413 6831840 347.8815   1.6533  2.65136163 53404
NEOSSAT                 
1 39089U 13009D   18062.59094190  .00000008  00000-0  18288-4 0  9995
2 39089  98.5342 268.0991 0010092 248.4515 111.5595 14.34416818262588
BRITE-AUSTRIA           
1 39091U 13009F   18063.17737115 -.00000002  00000-0  14776-4 0  9997
2 39091  98.5284 270.1702 0009393 255.3343 104.6801 14.35062049262787
UNIBRITE                
1 39092U 13009G   18063.12974988 -.00000000  00000-0  15346-4 0  9996
2 39092  98.5296 269.7923 0008313 247.9331 112.0971 14.34936192262751
IRIS                    
1 39197U 13033A   18063.52413589  .00000097  00000-0  20382-4 0  9999
2 39197  97.9335 246.1521 0028793  55.1031 305.2880 14.78504407252579
HISAKI (SPRINT-A)       
1 39253U 13049A   18063.53315041  .00000051  00000-0 -17321-4 0  9994
2 39253  29.7196 121.6966 0137179 328.7322  30.5150 13.55190277221575
CASSIOPE                
1 39265U 13055A   18063.16963444  .00002592  00000-0  75327-4 0  9990
2 39265  80.9675 105.6354 0679296 219.2654 135.7362 14.24810581228502
DANDE                   
1 39267U 13055C   18062.87796783  .00002089  00000-0  62440-4 0  9992
2 39267  81.0114 120.7806 0705981 244.1567 108.5195 14.18616301227839
STSAT-3                 
1 39422U 13066G   18063.46239937  .00000286  00000-0  35458-4 0  9992
2 39422  97.6226 122.1694 0024777  91.3079 269.0990 14.89575726232674
BRITE-PL                
1 39431U 13066R   18062.93528873  .00000086  00000-0  28325-4 0  9996
2 39431  97.7446  23.1641 0203339  32.3127 329.0335 14.46913053225813
SWARM B                 
1 39451U 13067A   18062.94456188  .00000357  00000-0  14391-4 0  9998
2 39451  87.7598 170.2840 0003649 109.6680 250.4959 15.21254488222776
SWARM A                 
1 39452U 13067B   18062.92156812  .00000969  00000-0  21023-4 0  9997
2 39452  87.3428  75.8216 0003340  82.2274 277.9361 15.42914184240135
SWARM C                 
1 39453U 13067C   18062.92148079  .00000938  00000-0  20309-4 0  9996
2 39453  87.3429  77.2477 0003315  81.6892 278.4741 15.42914264240095
BRITE-TORONTO           
1 40020U 14033L   18063.55278227  .00000065  00000-0  19693-4 0  9996
2 40020  97.8009 287.0967 0086673 217.5623 141.9507 14.66471952198242
OCO 2                   
1 40059U 14035A   18062.85942300  .00000027  00000-0  16198-4 0  9997
2 40059  98.2336   5.7436 0001008  80.3158 279.8155 14.57096182195218
BRITE-PL 2              
1 40119U 14049B   18063.31176868  .00000100  00000-0  18490-4 0  9998
2 40119  97.9205 152.6745 0016565 324.1166  35.8934 14.84256216191748
RESURS P2               
1 40360U 14087A   18063.50040271  .00000641  00000-0  22859-4 0  9991
2 40360  97.2689 157.6308 0008230 304.7542 152.9936 15.32445361178245
MMS 1                   
1 40482U 15011A   18061.66666667 -.00000629  00000-0  00000-0 0  9999
2 40482  15.6935 309.9686 9061790 163.8460 158.7257  0.35508432  8575
MMS 2                   
1 40483U 15011B   18060.62780757 -.00000557  00000-0  00000-0 0  9992
2 40483  15.7268 309.9328 9062751 163.8353  25.9811  0.35511360  8562
MMS 3                   
1 40484U 15011C   18061.66666667 -.00000629  00000-0  00000-0 0  9991
2 40484  15.6923 309.9524 9060796 163.8552 158.7330  0.35508529  8560
MMS 4                   
1 40485U 15011D   18060.62780757 -.00000557  00000-0  00000-0 0  9994
2 40485  15.7299 309.9328 9062338 163.8384  25.9598  0.35511465  8550
ASTROSAT                
1 40930U 15052A   18063.31810555  .00000645  00000-0  15026-5 0  9999
2 40930   5.9956 181.6290 0009074 324.0244  35.9167 14.76195152131454
DAMPE                   
1 41173U 15078A   18062.81900759  .00000046  00000-0  48001-5 0  9991
2 41173  97.2922  68.5332 0013123 328.1825 132.5567 15.23668005122993
PISAT                   
1 41784U 16059B   18062.94213591  .00000085  00000-0  25733-4 0  9993
2 41784  98.1320 126.4647 0033164  66.2871 294.1805 14.63309434 76566
HXMT                    
1 42758U 17034A   18063.38019676  .00000268  00000-0  30819-4 0  9990
2 42758  43.0190 300.6597 0008022 189.5847 145.8602 15.08251890 39590
FLYING LAPTOP           
1 42831U 17042G   18062.78051450  .00000052  00000-0  10788-4 0  9994
2 42831  97.6056 329.0701 0013885 184.4528 175.6569 14.90801471 34621
PICSAT                  
1 43131U 18004W   18063.14824735  .00001627  00000-0  73510-4 0  9993
2 43131  97.5472 125.4929 0011592 104.5271 255.7251 15.22371697  7735
